ERS-1                   
1 21574U 91050A   26094.90280676  .00000450  00000+0  15838-3 0  9999
2 21574  98.7858 113.7942 0032948 123.5661 236.8680 14.39470905819501
ARIANE 40 R/B           
1 21610U 91050F   26094.89140541  .00000429  00000+0  14078-3 0  9995
2 21610  98.1957 146.1375 0003115  19.9269 340.2043 14.42914096822776
INTERCOSMOS 25          
1 21819U 91086A   26094.90691613  .00002138  00000+0  41335-3 0  9993
2 21819  82.5999 294.1565 1486278  60.4453 313.6503 12.12094592499867
SL-8 R/B                
1 21876U 92008B   26094.91012486  .00000027  00000+0  11892-4 0  9998
2 21876  82.9244 248.2685 0035757  62.6400  48.9289 13.75969903713020
SL-8 R/B                
1 21938U 92020B   26094.90112664  .00000019  00000+0  41025-5 0  9992
2 21938  82.9290 134.2984 0028069 222.3660 311.5788 13.75550683704739
USA 81                  
1 21949U 92023A   26094.50608602  .00000238  00000+0  80713-4 0  9994
2 21949  85.0039 116.5408 0001511  70.2661 289.8694 14.32376919 98487
COSMOS 2219             
1 22219U 92076A   26094.90629916 -.00000161  00000+0 -59762-4 0  9995
2 22219  71.0606 323.2679 0017651 167.2287 192.9286 14.14088630722084
SL-16 R/B               
1 22220U 92076B   26094.55386778 -.00000104  00000+0 -28091-4 0  9992
2 22220  70.9983 133.8946 0010935  48.8095 103.2636 14.16862650725499
COSMOS 2221             
1 22236U 92080A   26094.91938075  .00003433  00000+0  30070-3 0  9992
2 22236  82.5018 253.9473 0015674 103.6116 256.6853 14.96323797784718
SL-16 R/B               
1 22285U 92093B   26094.88739858 -.00000094  00000+0 -23699-4 0  9996
2 22285  71.0219 309.2721 0006653 268.6039  91.4322 14.15456114716860
COSMOS 2228             
1 22286U 92094A   26094.85133705  .00003528  00000+0  30100-3 0  9991
2 22286  82.5200 212.2620 0017275 209.7732 150.2510 14.97338680779978
SL-16 R/B               
1 22566U 93016B   26094.93046639  .00000352  00000+0  20535-3 0  9998
2 22566  71.0072 160.0718 0012408 280.6461  79.3264 14.15309038705888
