CCSDS_OMM_VERS = 2.0
CREATION_DATE  = 
ORIGINATOR     = 

OBJECT_NAME    = ERS-1
OBJECT_ID      = 1991-050A
CENTER_NAME    = EARTH
REF_FRAME      = TEME
TIME_SYSTEM    = UTC
MEAN_ELEMENT_THEORY = SGP/SGP4

EPOCH          = 2026-04-04T21:40:02.504064
MEAN_MOTION    = 14.39470905
ECCENTRICITY   = .0032948
INCLINATION    = 98.7858
RA_OF_ASC_NODE = 113.7942
ARG_OF_PERICENTER = 123.5661
MEAN_ANOMALY   = 236.8680

EPHEMERIS_TYPE = 0
CLASSIFICATION_TYPE = U
NORAD_CAT_ID   = 21574
ELEMENT_SET_NO = 999
REV_AT_EPOCH   = 81950
BSTAR          = .15837989E-3
MEAN_MOTION_DOT = .45E-5
MEAN_MOTION_DDOT = 0

CCSDS_OMM_VERS = 2.0
CREATION_DATE  = 
ORIGINATOR     = 

OBJECT_NAME    = ARIANE 40 R/B
OBJECT_ID      = 1991-050F
CENTER_NAME    = EARTH
REF_FRAME      = TEME
TIME_SYSTEM    = UTC
MEAN_ELEMENT_THEORY = SGP/SGP4

EPOCH          = 2026-04-04T21:23:37.427424
MEAN_MOTION    = 14.42914096
ECCENTRICITY   = .0003115
INCLINATION    = 98.1957
RA_OF_ASC_NODE = 146.1375
ARG_OF_PERICENTER = 19.9269
MEAN_ANOMALY   = 340.2043

EPHEMERIS_TYPE = 0
CLASSIFICATION_TYPE = U
NORAD_CAT_ID   = 21610
ELEMENT_SET_NO = 999
REV_AT_EPOCH   = 82277
BSTAR          = .14077556E-3
MEAN_MOTION_DOT = .429E-5
MEAN_MOTION_DDOT = 0

CCSDS_OMM_VERS = 2.0
CREATION_DATE  = 
ORIGINATOR     = 

OBJECT_NAME    = INTERCOSMOS 25
OBJECT_ID      = 1991-086A
CENTER_NAME    = EARTH
REF_FRAME      = TEME
TIME_SYSTEM    = UTC
MEAN_ELEMENT_THEORY = SGP/SGP4

EPOCH          = 2026-04-04T21:45:57.553632
MEAN_MOTION    = 12.12094592
ECCENTRICITY   = .14862788
INCLINATION    = 82.5999
RA_OF_ASC_NODE = 294.1565
ARG_OF_PERICENTER = 60.4453
MEAN_ANOMALY   = 313.6503

EPHEMERIS_TYPE = 0
CLASSIFICATION_TYPE = U
NORAD_CAT_ID   = 21819
ELEMENT_SET_NO = 999
REV_AT_EPOCH   = 49986
BSTAR          = .41334777E-3
MEAN_MOTION_DOT = .2138E-4
MEAN_MOTION_DDOT = 0

CCSDS_OMM_VERS = 2.0
CREATION_DATE  = 
ORIGINATOR     = 

OBJECT_NAME    = SL-8 R/B
OBJECT_ID      = 1992-008B
CENTER_NAME    = EARTH
REF_FRAME      = TEME
TIME_SYSTEM    = UTC
MEAN_ELEMENT_THEORY = SGP/SGP4

EPOCH          = 2026-04-04T21:50:34.787904
MEAN_MOTION    = 13.75969903
ECCENTRICITY   = .00357578
INCLINATION    = 82.9244
RA_OF_ASC_NODE = 248.2685
ARG_OF_PERICENTER = 62.6400
MEAN_ANOMALY   = 48.9289

EPHEMERIS_TYPE = 0
CLASSIFICATION_TYPE = U
NORAD_CAT_ID   = 21876
ELEMENT_SET_NO = 999
REV_AT_EPOCH   = 71302
BSTAR          = .1189156E-4
MEAN_MOTION_DOT = .27E-6
MEAN_MOTION_DDOT = 0

CCSDS_OMM_VERS = 2.0
CREATION_DATE  = 
ORIGINATOR     = 

OBJECT_NAME    = SL-8 R/B
OBJECT_ID      = 1992-020B
CENTER_NAME    = EARTH
REF_FRAME      = TEME
TIME_SYSTEM    = UTC
MEAN_ELEMENT_THEORY = SGP/SGP4

EPOCH          = 2026-04-04T21:37:37.341696
MEAN_MOTION    = 13.75550683
ECCENTRICITY   = .00280698
INCLINATION    = 82.9290
RA_OF_ASC_NODE = 134.2984
ARG_OF_PERICENTER = 222.3660
MEAN_ANOMALY   = 311.5788

EPHEMERIS_TYPE = 0
CLASSIFICATION_TYPE = U
NORAD_CAT_ID   = 21938
ELEMENT_SET_NO = 999
REV_AT_EPOCH   = 70473
BSTAR          = .4102464E-5
MEAN_MOTION_DOT = .19E-6
MEAN_MOTION_DDOT = 0

CCSDS_OMM_VERS = 2.0
CREATION_DATE  = 
ORIGINATOR     = 

OBJECT_NAME    = USA 81
OBJECT_ID      = 1992-023A
CENTER_NAME    = EARTH
REF_FRAME      = TEME
TIME_SYSTEM    = UTC
MEAN_ELEMENT_THEORY = SGP/SGP4

EPOCH          = 2026-04-04T12:08:45.832128
MEAN_MOTION    = 14.32376919
ECCENTRICITY   = .00015111
INCLINATION    = 85.0039
RA_OF_ASC_NODE = 116.5408
ARG_OF_PERICENTER = 70.2661
MEAN_ANOMALY   = 289.8694

EPHEMERIS_TYPE = 0
CLASSIFICATION_TYPE = U
NORAD_CAT_ID   = 21949
ELEMENT_SET_NO = 999
REV_AT_EPOCH   = 9848
BSTAR          = .8071339E-4
MEAN_MOTION_DOT = .238E-5
MEAN_MOTION_DDOT = 0

CCSDS_OMM_VERS = 2.0
CREATION_DATE  = 
ORIGINATOR     = 

OBJECT_NAME    = COSMOS 2219
OBJECT_ID      = 1992-076A
CENTER_NAME    = EARTH
REF_FRAME      = TEME
TIME_SYSTEM    = UTC
MEAN_ELEMENT_THEORY = SGP/SGP4

EPOCH          = 2026-04-04T21:45:04.247424
MEAN_MOTION    = 14.14088630
ECCENTRICITY   = .00176513
INCLINATION    = 71.0606
RA_OF_ASC_NODE = 323.2679
ARG_OF_PERICENTER = 167.2287
MEAN_ANOMALY   = 192.9286

EPHEMERIS_TYPE = 0
CLASSIFICATION_TYPE = U
NORAD_CAT_ID   = 22219
ELEMENT_SET_NO = 999
REV_AT_EPOCH   = 72208
BSTAR          = -.59761943E-4
MEAN_MOTION_DOT = -.161E-5
MEAN_MOTION_DDOT = 0

CCSDS_OMM_VERS = 2.0
CREATION_DATE  = 
ORIGINATOR     = 

OBJECT_NAME    = SL-16 R/B
OBJECT_ID      = 1992-076B
CENTER_NAME    = EARTH
REF_FRAME      = TEME
TIME_SYSTEM    = UTC
MEAN_ELEMENT_THEORY = SGP/SGP4

EPOCH          = 2026-04-04T13:17:34.176192
MEAN_MOTION    = 14.16862650
ECCENTRICITY   = .00109358
INCLINATION    = 70.9983
RA_OF_ASC_NODE = 133.8946
ARG_OF_PERICENTER = 48.8095
MEAN_ANOMALY   = 103.2636

EPHEMERIS_TYPE = 0
CLASSIFICATION_TYPE = U
NORAD_CAT_ID   = 22220
ELEMENT_SET_NO = 999
REV_AT_EPOCH   = 72549
BSTAR          = -.28091117E-4
MEAN_MOTION_DOT = -.104E-5
MEAN_MOTION_DDOT = 0

CCSDS_OMM_VERS = 2.0
CREATION_DATE  = 
ORIGINATOR     = 

OBJECT_NAME    = COSMOS 2221
OBJECT_ID      = 1992-080A
CENTER_NAME    = EARTH
REF_FRAME      = TEME
TIME_SYSTEM    = UTC
MEAN_ELEMENT_THEORY = SGP/SGP4

EPOCH          = 2026-04-04T22:03:54.496800
MEAN_MOTION    = 14.96323797
ECCENTRICITY   = .00156746
INCLINATION    = 82.5018
RA_OF_ASC_NODE = 253.9473
ARG_OF_PERICENTER = 103.6116
MEAN_ANOMALY   = 256.6853

EPHEMERIS_TYPE = 0
CLASSIFICATION_TYPE = U
NORAD_CAT_ID   = 22236
ELEMENT_SET_NO = 999
REV_AT_EPOCH   = 78471
BSTAR          = .3006991E-3
MEAN_MOTION_DOT = .3433E-4
MEAN_MOTION_DDOT = 0

CCSDS_OMM_VERS = 2.0
CREATION_DATE  = 
ORIGINATOR     = 

OBJECT_NAME    = SL-16 R/B
OBJECT_ID      = 1992-093B
CENTER_NAME    = EARTH
REF_FRAME      = TEME
TIME_SYSTEM    = UTC
MEAN_ELEMENT_THEORY = SGP/SGP4

EPOCH          = 2026-04-04T21:17:51.237312
MEAN_MOTION    = 14.15456114
ECCENTRICITY   = .00066537
INCLINATION    = 71.0219
RA_OF_ASC_NODE = 309.2721
ARG_OF_PERICENTER = 268.6039
MEAN_ANOMALY   = 91.4322

EPHEMERIS_TYPE = 0
CLASSIFICATION_TYPE = U
NORAD_CAT_ID   = 22285
ELEMENT_SET_NO = 999
REV_AT_EPOCH   = 71686
BSTAR          = -.23699033E-4
MEAN_MOTION_DOT = -.94E-6
MEAN_MOTION_DDOT = 0

CCSDS_OMM_VERS = 2.0
CREATION_DATE  = 
ORIGINATOR     = 

OBJECT_NAME    = COSMOS 2228
OBJECT_ID      = 1992-094A
CENTER_NAME    = EARTH
REF_FRAME      = TEME
TIME_SYSTEM    = UTC
MEAN_ELEMENT_THEORY = SGP/SGP4

EPOCH          = 2026-04-04T20:25:55.521120
MEAN_MOTION    = 14.97338680
ECCENTRICITY   = .00172756
INCLINATION    = 82.5200
RA_OF_ASC_NODE = 212.2620
ARG_OF_PERICENTER = 209.7732
MEAN_ANOMALY   = 150.2510

EPHEMERIS_TYPE = 0
CLASSIFICATION_TYPE = U
NORAD_CAT_ID   = 22286
ELEMENT_SET_NO = 999
REV_AT_EPOCH   = 77997
BSTAR          = .30100159E-3
MEAN_MOTION_DOT = .3528E-4
MEAN_MOTION_DDOT = 0

CCSDS_OMM_VERS = 2.0
CREATION_DATE  = 
ORIGINATOR     = 

OBJECT_NAME    = SL-16 R/B
OBJECT_ID      = 1993-016B
CENTER_NAME    = EARTH
REF_FRAME      = TEME
TIME_SYSTEM    = UTC
MEAN_ELEMENT_THEORY = SGP/SGP4

EPOCH          = 2026-04-04T22:19:52.296096
MEAN_MOTION    = 14.15309038
ECCENTRICITY   = .0012408
INCLINATION    = 71.0072
RA_OF_ASC_NODE = 160.0718
ARG_OF_PERICENTER = 280.6461
MEAN_ANOMALY   = 79.3264

EPHEMERIS_TYPE = 0
CLASSIFICATION_TYPE = U
NORAD_CAT_ID   = 22566
ELEMENT_SET_NO = 999
REV_AT_EPOCH   = 70588
BSTAR          = .20535414E-3
MEAN_MOTION_DOT = .352E-5
MEAN_MOTION_DDOT = 0

